IRIDIUM 155             
1 43573U 18061E   25206.94326882 -.00000036  00000+0 -19880-4 0  9995
2 43573  86.3994 192.9870 0001905  84.3470 275.7943 14.34217279366596
IRIDIUM 154             
1 43574U 18061F   25207.06377611  .00000108  00000+0  31447-4 0  9997
2 43574  86.3994 193.0537 0002278  88.2291 271.9166 14.34218929366663
IRIDIUM 163             
1 43575U 18061G   25207.04475598  .00000134  00000+0  40906-4 0  9998
2 43575  86.3992 192.9874 0002345  84.0741 276.0722 14.34215286366637
IRIDIUM 156             
1 43576U 18061H   25207.01937951 -.00000002  00000+0 -79480-5 0  9998
2 43576  86.3996 193.0050 0001799  88.6609 271.4793 14.34217533366617
IRIDIUM 164             
1 43577U 18061J   25207.00035227 -.00000007  00000+0 -94963-5 0  9991
2 43577  86.3997 193.0480 0002189  94.3006 265.8440 14.34217668366665
IRIDIUM 159             
1 43578U 18061K   25207.03840843  .00000015  00000+0 -16420-5 0  9993
2 43578  86.3992 192.9758 0002490  88.6880 271.4601 14.34217832366630
IRIDIUM 180             
1 43922U 19002A   25206.75882665  .00000230  00000+0  74935-4 0  9990
2 43922  86.3997 130.0763 0002275  80.9941 279.1512 14.34216838342209
IRIDIUM 176             
1 43923U 19002B   25207.18586530  .00000968  00000+0  14962-3 0  9992
2 43923  86.6123 129.8873 0002052  72.9207 287.2235 14.72248240351285
IRIDIUM 168             
1 43924U 19002C   25206.75248754  .00000115  00000+0  33840-4 0  9999
2 43924  86.4000 130.1472 0002216  83.0137 277.1311 14.34218016342183
IRIDIUM 173             
1 43925U 19002D   25206.73980440  .00000202  00000+0  64983-4 0  9992
2 43925  86.3995 130.0545 0002239  80.3354 279.8094 14.34219620342169
IRIDIUM 169             
1 43926U 19002E   25206.40966876  .00000266  00000+0  80372-4 0  9994
2 43926  86.4276 161.7798 0001611  47.9151 312.2184 14.38606097343245
IRIDIUM 172             
1 43927U 19002F   25206.73345857  .00000007  00000+0 -46003-5 0  9999
2 43927  86.3996 130.0642 0002362  80.3394 279.8069 14.34219160342173
IRIDIUM 175             
1 43928U 19002G   25207.18089376  .00000824  00000+0  12669-3 0  9996
2 43928  86.1472  80.1783 0001573 106.1614 253.9775 14.72246075351272
IRIDIUM 171             
1 43929U 19002H   25206.71443116  .00000135  00000+0  41058-4 0  9991
2 43929  86.4008 130.3422 0002066  92.6906 267.4526 14.34218267342162
IRIDIUM 170             
1 43930U 19002J   25206.71627300  .00000888  00000+0  13699-3 0  9996
2 43930  86.6120 130.0885 0002115  90.3662 269.7798 14.72245621351229
IRIDIUM 167             
1 43931U 19002K   25207.19646607  .00000162  00000+0  50932-4 0  9998
2 43931  86.3998 129.8905 0001775  90.3795 269.7604 14.34219156342236
IRIDIUM 181             
1 56726U 23068S   25207.05031949  .00000170  00000+0  44582-4 0  9996
2 56726  86.4530 193.0095 0002480 102.1495 257.9984 14.43312879115392
IRIDIUM 177             
1 56727U 23068T   25207.21242679  .00001064  00000+0  13652-3 0  9995
2 56727  86.1988 123.6134 0002256  92.1621 267.9858 14.80231376118140
IRIDIUM 174             
1 56728U 23068U   25207.17969143  .00001023  00000+0  15838-3 0  9996
2 56728  86.6131 130.0087 0002739  74.0738 286.0781 14.72251326118054
IRIDIUM 178             
1 56729U 23068V   25206.93111918  .00001359  00000+0  17541-3 0  9994
2 56729  86.6593 161.6714 0002590  83.0886 277.0630 14.80229436118108
IRIDIUM 179             
1 56730U 23068W   25206.92574958  .00001195  00000+0  15377-3 0  9995
2 56730  86.6832 169.6592 0002367  88.2396 271.9097 14.80235815118101
